OBJECT B                
1 51825U 22019B   25226.88857793  .00021951  00000+0  50014-3 0  9997
2 51825  97.3808 304.2886 0010455 163.5672 196.5916 15.42894138192110
